start=new Date('2023-04-02T00:00:00.000Z').valueOf();
sats=[{"MEAN_MOTION_DDOT":"0.0000000000000","TIME_SYSTEM":"UTC","RA_OF_ASC_NODE":"37.7824","MEAN_MOTION_DOT":"-0.00937974","LAUNCH_DATE":"2023-02-02","OBJECT_NAME":"STARLINK-5686","ARG_OF_PERICENTER":"264.1142","DECAY_DATE":null,"ELEMENT_SET_NO":"999","TLE_LINE1":"1 55450U 23015B   23092.00001157 -.00937974  00000-0 -28532-1 0  9992","RCS_SIZE":"LARGE","FILE":"3877516","ECCENTRICITY":"0.00012100","NORAD_CAT_ID":"55450","REV_AT_EPOCH":"130","APOAPSIS":"458.521","INCLINATION":"43.0018","CENTER_NAME":"EARTH","EPOCH":"2023-04-02T00:00:00.999648","SITE":"AFETR","SEMIMAJOR_AXIS":"6835.829","OBJECT_ID":"2023-015B","OBJECT_TYPE":"PAYLOAD","PERIAPSIS":"456.867","GP_ID":"229280117","BSTAR":"-0.02853200000000","REF_FRAME":"TEME","MEAN_ANOMALY":"227.7275","PERIOD":"93.745","COUNTRY_CODE":"US","TLE_LINE2":"2 55450  43.0018  37.7824 0001210 264.1142 227.7275 15.36087649  1307","EPHEMERIS_TYPE":"0","CLASSIFICATION_TYPE":"U","MEAN_ELEMENT_THEORY":"SGP4","MEAN_MOTION":"15.36087649"},{"OBJECT_NAME":"STARLINK-5656","ARG_OF_PERICENTER":"269.0688","DECAY_DATE":null,"ELEMENT_SET_NO":"999","TLE_LINE1":"1 55451U 23015C   23092.00001157 -.00935488  00000-0 -28149-1 0  9995","RCS_SIZE":"LARGE","LAUNCH_DATE":"2023-02-02","TIME_SYSTEM":"UTC","MEAN_MOTION_DOT":"-0.00935488","RA_OF_ASC_NODE":"37.7569","MEAN_MOTION_DDOT":"0.0000000000000","MEAN_ANOMALY":"233.0072","PERIOD":"93.725","TLE_LINE2":"2 55451  43.0016  37.7569 0001261 269.0688 233.0072 15.36414563  1301","EPHEMERIS_TYPE":"0","COUNTRY_CODE":"US","CLASSIFICATION_TYPE":"U","MEAN_ELEMENT_THEORY":"SGP4","MEAN_MOTION":"15.36414563","SEMIMAJOR_AXIS":"6834.859","OBJECT_ID":"2023-015C","OBJECT_TYPE":"PAYLOAD","PERIAPSIS":"455.862","GP_ID":"229281368","REF_FRAME":"TEME","BSTAR":"-0.02814900000000","APOAPSIS":"457.586","INCLINATION":"43.0016","CENTER_NAME":"EARTH","EPOCH":"2023-04-02T00:00:00.999648","SITE":"AFETR","FILE":"3877516","ECCENTRICITY":"0.00012610","NORAD_CAT_ID":"55451","REV_AT_EPOCH":"130"},{"LAUNCH_DATE":"2023-02-02","ARG_OF_PERICENTER":"262.6256","OBJECT_NAME":"STARLINK-5683","RCS_SIZE":"LARGE","TLE_LINE1":"1 55452U 23015D   23092.00001157 -.00936279  00000-0 -27722-1 0  9991","DECAY_DATE":null,"ELEMENT_SET_NO":"999","MEAN_MOTION_DDOT":"0.0000000000000","RA_OF_ASC_NODE":"37.7232","MEAN_MOTION_DOT":"-0.00936279","TIME_SYSTEM":"UTC","OBJECT_TYPE":"PAYLOAD","OBJECT_ID":"2023-015D","SEMIMAJOR_AXIS":"6833.381","BSTAR":"-0.02772200000000","REF_FRAME":"TEME","PERIAPSIS":"454.433","GP_ID":"229281618","MEAN_ANOMALY":"253.3406","MEAN_MOTION":"15.36913085","MEAN_ELEMENT_THEORY":"SGP4","TLE_LINE2":"2 55452  43.0014  37.7232 0001190 262.6256 253.3406 15.36913085  1307","EPHEMERIS_TYPE":"0","COUNTRY_CODE":"US","CLASSIFICATION_TYPE":"U","PERIOD":"93.694","ECCENTRICITY":"0.00011900","FILE":"3877516","REV_AT_EPOCH":"130","NORAD_CAT_ID":"55452","EPOCH":"2023-04-02T00:00:00.999648","INCLINATION":"43.0014","CENTER_NAME":"EARTH","APOAPSIS":"456.059","SITE":"AFETR"},{"MEAN_MOTION_DDOT":"0.0000000000000","TIME_SYSTEM":"UTC","RA_OF_ASC_NODE":"37.7096","MEAN_MOTION_DOT":"-0.00936398","LAUNCH_DATE":"2023-02-02","ARG_OF_PERICENTER":"264.0044","OBJECT_NAME":"STARLINK-5684","ELEMENT_SET_NO":"999","DECAY_DATE":null,"RCS_SIZE":"LARGE","TLE_LINE1":"1 55453U 23015E   23092.00001157 -.00936398  00000-0 -27552-1 0  9995","FILE":"3877516","ECCENTRICITY":"0.00011640","REV_AT_EPOCH":"130","NORAD_CAT_ID":"55453","CENTER_NAME":"EARTH","INCLINATION":"43.0015","APOAPSIS":"455.469","EPOCH":"2023-04-02T00:00:00.999648","SITE":"AFETR","SEMIMAJOR_AXIS":"6832.809","OBJECT_TYPE":"PAYLOAD","OBJECT_ID":"2023-015E","GP_ID":"229279867","PERIAPSIS":"453.879","BSTAR":"-0.02755200000000","REF_FRAME":"TEME","MEAN_ANOMALY":"257.4915","TLE_LINE2":"2 55453  43.0015  37.7096 0001164 264.0044 257.4915 15.37106124  1308","CLASSIFICATION_TYPE":"U","COUNTRY_CODE":"US","EPHEMERIS_TYPE":"0","PERIOD":"93.683","MEAN_MOTION":"15.37106124","MEAN_ELEMENT_THEORY":"SGP4"},{"ECCENTRICITY":"0.00012240","FILE":"3877516","NORAD_CAT_ID":"55454","REV_AT_EPOCH":"130","EPOCH":"2023-04-02T00:00:00.999648","APOAPSIS":"454.051","INCLINATION":"43.0014","CENTER_NAME":"EARTH","SITE":"AFETR","OBJECT_ID":"2023-015F","OBJECT_TYPE":"PAYLOAD","SEMIMAJOR_AXIS":"6831.350","BSTAR":"-0.02703300000000","REF_FRAME":"TEME","PERIAPSIS":"452.379","GP_ID":"229280618","MEAN_ANOMALY":"267.7165","MEAN_ELEMENT_THEORY":"SGP4","MEAN_MOTION":"15.37598535","PERIOD":"93.653","COUNTRY_CODE":"US","TLE_LINE2":"2 55454  43.0014  37.6747 0001224 268.1731 267.7165 15.37598535  1307","EPHEMERIS_TYPE":"0","CLASSIFICATION_TYPE":"U","MEAN_MOTION_DDOT":"0.0000000000000","RA_OF_ASC_NODE":"37.6747","MEAN_MOTION_DOT":"-0.00933904","TIME_SYSTEM":"UTC","LAUNCH_DATE":"2023-02-02","OBJECT_NAME":"STARLINK-5636","ARG_OF_PERICENTER":"268.1731","TLE_LINE1":"1 55454U 23015F   23092.00001157 -.00933904  00000-0 -27033-1 0  9990","RCS_SIZE":"LARGE","DECAY_DATE":null,"ELEMENT_SET_NO":"999"},{"SITE":"AFETR","EPOCH":"2023-04-02T00:00:00.999648","INCLINATION":"43.0013","CENTER_NAME":"EARTH","APOAPSIS":"456.792","REV_AT_EPOCH":"130","NORAD_CAT_ID":"55455","ECCENTRICITY":"0.00011760","FILE":"3877516","MEAN_MOTION":"15.36662585","MEAN_ELEMENT_THEORY":"SGP4","COUNTRY_CODE":"US","TLE_LINE2":"2 55455  43.0013  37.7399 0001176 268.8985 240.1500 15.36662585  1309","CLASSIFICATION_TYPE":"U","EPHEMERIS_TYPE":"0","PERIOD":"93.710","MEAN_ANOMALY":"240.1500","BSTAR":"-0.02797500000000","REF_FRAME":"TEME","GP_ID":"229280868","PERIAPSIS":"455.185","OBJECT_ID":"2023-015G","OBJECT_TYPE":"PAYLOAD","SEMIMAJOR_AXIS":"6834.124","MEAN_MOTION_DOT":"-0.00937072","RA_OF_ASC_NODE":"37.7399","TIME_SYSTEM":"UTC","MEAN_MOTION_DDOT":"0.0000000000000","TLE_LINE1":"1 55455U 23015G   23092.00001157 -.00937072  00000-0 -27975-1 0  9996","RCS_SIZE":"LARGE","DECAY_DATE":null,"ELEMENT_SET_NO":"999","ARG_OF_PERICENTER":"268.8985","OBJECT_NAME":"STARLINK-5680","LAUNCH_DATE":"2023-02-02"},{"SITE":"AFETR","APOAPSIS":"454.649","INCLINATION":"43.0015","CENTER_NAME":"EARTH","EPOCH":"2023-04-02T00:00:00.999648","NORAD_CAT_ID":"55456","REV_AT_EPOCH":"130","FILE":"3877516","ECCENTRICITY":"0.00012040","PERIOD":"93.665","TLE_LINE2":"2 55456  43.0015  37.6887 0001204 264.7465 265.5010 15.37391998  1308","CLASSIFICATION_TYPE":"U","COUNTRY_CODE":"US","EPHEMERIS_TYPE":"0","MEAN_ELEMENT_THEORY":"SGP4","MEAN_MOTION":"15.37391998","MEAN_ANOMALY":"265.5010","GP_ID":"229281118","PERIAPSIS":"453.004","REF_FRAME":"TEME","BSTAR":"-0.02725300000000","SEMIMAJOR_AXIS":"6831.962","OBJECT_TYPE":"PAYLOAD","OBJECT_ID":"2023-015H","TIME_SYSTEM":"UTC","RA_OF_ASC_NODE":"37.6887","MEAN_MOTION_DOT":"-0.00935055","MEAN_MOTION_DDOT":"0.0000000000000","ELEMENT_SET_NO":"999","DECAY_DATE":null,"TLE_LINE1":"1 55456U 23015H   23092.00001157 -.00935055  00000-0 -27253-1 0  9995","RCS_SIZE":"LARGE","OBJECT_NAME":"STARLINK-5058","ARG_OF_PERICENTER":"264.7465","LAUNCH_DATE":"2023-02-02"},{"EPOCH":"2023-04-02T00:00:00.999648","INCLINATION":"43.0017","CENTER_NAME":"EARTH","APOAPSIS":"454.949","SITE":"AFETR","ECCENTRICITY":"0.00012580","FILE":"3877516","REV_AT_EPOCH":"130","NORAD_CAT_ID":"55457","MEAN_ANOMALY":"262.6895","MEAN_MOTION":"15.37303249","MEAN_ELEMENT_THEORY":"SGP4","TLE_LINE2":"2 55457  43.0017  37.6963 0001258 264.3834 262.6895 15.37303249  1302","COUNTRY_CODE":"US","CLASSIFICATION_TYPE":"U","EPHEMERIS_TYPE":"0","PERIOD":"93.671","OBJECT_TYPE":"PAYLOAD","OBJECT_ID":"2023-015J","SEMIMAJOR_AXIS":"6832.225","REF_FRAME":"TEME","BSTAR":"-0.02725900000000","GP_ID":"229280368","PERIAPSIS":"453.230","RA_OF_ASC_NODE":"37.6963","MEAN_MOTION_DOT":"-0.00932769","TIME_SYSTEM":"UTC","MEAN_MOTION_DDOT":"0.0000000000000","ARG_OF_PERICENTER":"264.3834","OBJECT_NAME":"STARLINK-5682","RCS_SIZE":"LARGE","TLE_LINE1":"1 55457U 23015J   23092.00001157 -.00932769  00000-0 -27259-1 0  9991","DECAY_DATE":null,"ELEMENT_SET_NO":"999","LAUNCH_DATE":"2023-02-02"},{"INCLINATION":"43.0016","CENTER_NAME":"EARTH","APOAPSIS":"451.440","EPOCH":"2023-04-02T00:00:00.999648","SITE":"AFETR","FILE":"3877516","ECCENTRICITY":"0.00011680","REV_AT_EPOCH":"130","NORAD_CAT_ID":"55458","MEAN_ANOMALY":"297.8798","TLE_LINE2":"2 55458  43.0016  37.6198 0001168 260.6354 297.8798 15.38467437  1301","CLASSIFICATION_TYPE":"U","COUNTRY_CODE":"US","EPHEMERIS_TYPE":"0","PERIOD":"93.600","MEAN_MOTION":"15.38467437","MEAN_ELEMENT_THEORY":"SGP4","SEMIMAJOR_AXIS":"6828.778","OBJECT_ID":"2023-015K","OBJECT_TYPE":"PAYLOAD","PERIAPSIS":"449.845","GP_ID":"229280118","REF_FRAME":"TEME","BSTAR":"-0.02630900000000","TIME_SYSTEM":"UTC","RA_OF_ASC_NODE":"37.6198","MEAN_MOTION_DOT":"-0.00935079","MEAN_MOTION_DDOT":"0.0000000000000","ARG_OF_PERICENTER":"260.6354","OBJECT_NAME":"STARLINK-5020","ELEMENT_SET_NO":"999","DECAY_DATE":null,"RCS_SIZE":"LARGE","TLE_LINE1":"1 55458U 23015K   23092.00001157 -.00935079  00000-0 -26309-1 0  9994","LAUNCH_DATE":"2023-02-02"},{"RCS_SIZE":"LARGE","TLE_LINE1":"1 55459U 23015L   23092.00001157 -.00934711  00000-0 -26716-1 0  9999","DECAY_DATE":null,"ELEMENT_SET_NO":"999","ARG_OF_PERICENTER":"270.5683","OBJECT_NAME":"STARLINK-5669","LAUNCH_DATE":"2023-02-02","RA_OF_ASC_NODE":"37.6488","MEAN_MOTION_DOT":"-0.00934711","TIME_SYSTEM":"UTC","MEAN_MOTION_DDOT":"0.0000000000000","MEAN_MOTION":"15.37987735","MEAN_ELEMENT_THEORY":"SGP4","EPHEMERIS_TYPE":"0","TLE_LINE2":"2 55459  43.0013  37.6488 0001124 270.5683 275.9054 15.37987735  1307","COUNTRY_CODE":"US","CLASSIFICATION_TYPE":"U","PERIOD":"93.629","MEAN_ANOMALY":"275.9054","BSTAR":"-0.02671600000000","REF_FRAME":"TEME","GP_ID":"229281369","PERIAPSIS":"451.295","OBJECT_TYPE":"PAYLOAD","OBJECT_ID":"2023-015L","SEMIMAJOR_AXIS":"6830.197","SITE":"AFETR","EPOCH":"2023-04-02T00:00:00.999648","INCLINATION":"43.0013","CENTER_NAME":"EARTH","APOAPSIS":"452.830","REV_AT_EPOCH":"130","NORAD_CAT_ID":"55459","ECCENTRICITY":"0.00011240","FILE":"3877516"}];
